STARLINK-5993           
1 56449U 23064B   25281.09268255  .00000640  00000+0  61407-4 0  9999
2 56449  69.9999 169.4043 0002948 271.6130  88.4691 14.98334408132388
STARLINK-5970           
1 56450U 23064C   25281.06780022  .00001358  00000+0  12157-3 0  9993
2 56450  70.0001 169.3181 0003002 271.7026  88.3789 14.98336846132381
STARLINK-5985           
1 56451U 23064D   25281.02174888  .00000840  00000+0  78214-4 0  9999
2 56451  69.9995 169.5582 0002845 269.3396  90.7437 14.98332731132370
STARLINK-5986           
1 56452U 23064E   25281.01757329  .00002129  00000+0  18610-3 0  9991
2 56452  69.9995 169.5434 0003031 275.4146  84.6668 14.98349887132374
STARLINK-5935           
1 56453U 23064F   25281.01340130  .00004035  00000+0  34571-3 0  9992
2 56453  70.0010 169.5295 0002495 262.5959  97.4917 14.98339413132376
STARLINK-5959           
1 56454U 23064G   25281.12604710  .00000976  00000+0  89555-4 0  9995
2 56454  70.0001 169.1191 0003020 269.6666  90.4147 14.98334472132396
STARLINK-5987           
1 56455U 23064H   25281.12187535  .00001564  00000+0  13886-3 0  9994
2 56455  69.9999 169.1041 0003099 267.9037  92.1767 14.98333952132392
STARLINK-5995           
1 56456U 23064J   25281.06763573  .00000774  00000+0  72629-4 0  9993
2 56456  70.0002 169.3174 0002868 269.7253  90.3577 14.98335084132389
STARLINK-5994           
1 56457U 23064K   25281.06345997  .00000974  00000+0  89411-4 0  9999
2 56457  70.0001 169.3016 0002965 270.9005  89.1814 14.98336303132386
STARLINK-6050           
1 56458U 23064L   25280.93829509 -.00003140  00000+0 -25546-3 0  9999
2 56458  69.9997 169.6673 0002892 268.2355  91.8473 14.98335160132366
STARLINK-6048           
1 56459U 23064M   25281.10534003 -.00001922  00000+0 -15332-3 0  9990
2 56459  69.9996 169.0460 0002885 265.0252  95.0577 14.98335882132381
STARLINK-6047           
1 56460U 23064N   25281.11770030  .00001685  00000+0  14895-3 0  9992
2 56460  69.9998 169.0897 0002990 269.2792  90.8025 14.98334706132397
STARLINK-6037           
1 56461U 23064P   25281.10100840 -.00001145  00000+0 -88171-4 0  9990
2 56461  70.0008 169.0290 0002898 266.9322  93.1505 14.98339895132393
STARLINK-6045           
1 56462U 23064Q   25280.98804778  .00000313  00000+0  34047-4 0  9994
2 56462  69.9969 129.2702 0003086 269.2366  90.8439 14.98329269133369
STARLINK-6051           
1 56463U 23064R   25281.14274563 -.00000217  00000+0 -10386-4 0  9992
2 56463  69.9987 169.1693 0002977 268.8626  91.2192 14.98329296132397
STARLINK-6043           
1 56464U 23064S   25281.11352938  .00003242  00000+0  27944-3 0  9999
2 56464  69.9993 169.0749 0003192 270.7846  89.2947 14.98319810132398
