[{"OBJECT_NAME":"STARLINK-5993","OBJECT_ID":"2023-064B","EPOCH":"2025-10-08T02:13:27.772320","MEAN_MOTION":14.98334408,"ECCENTRICITY":0.00029485,"INCLINATION":69.9999,"RA_OF_ASC_NODE":169.4043,"ARG_OF_PERICENTER":271.613,"MEAN_ANOMALY":88.4691,"EPHEMERIS_TYPE":0,"CLASSIFICATION_TYPE":"U","NORAD_CAT_ID":56449,"ELEMENT_SET_NO":999,"REV_AT_EPOCH":13238,"BSTAR":6.1407128e-5,"MEAN_MOTION_DOT":6.4e-6,"MEAN_MOTION_DDOT":0},{"OBJECT_NAME":"STARLINK-5970","OBJECT_ID":"2023-064C","EPOCH":"2025-10-08T01:37:37.939008","MEAN_MOTION":14.98336846,"ECCENTRICITY":0.00030023,"INCLINATION":70.0001,"RA_OF_ASC_NODE":169.3181,"ARG_OF_PERICENTER":271.7026,"MEAN_ANOMALY":88.3789,"EPHEMERIS_TYPE":0,"CLASSIFICATION_TYPE":"U","NORAD_CAT_ID":56450,"ELEMENT_SET_NO":999,"REV_AT_EPOCH":13238,"BSTAR":0.00012157347,"MEAN_MOTION_DOT":1.358e-5,"MEAN_MOTION_DDOT":0},{"OBJECT_NAME":"STARLINK-5985","OBJECT_ID":"2023-064D","EPOCH":"2025-10-08T00:31:19.103232","MEAN_MOTION":14.98332731,"ECCENTRICITY":0.0002845,"INCLINATION":69.9995,"RA_OF_ASC_NODE":169.5582,"ARG_OF_PERICENTER":269.3396,"MEAN_ANOMALY":90.7437,"EPHEMERIS_TYPE":0,"CLASSIFICATION_TYPE":"U","NORAD_CAT_ID":56451,"ELEMENT_SET_NO":999,"REV_AT_EPOCH":13237,"BSTAR":7.8214244e-5,"MEAN_MOTION_DOT":8.4e-6,"MEAN_MOTION_DDOT":0},{"OBJECT_NAME":"STARLINK-5986","OBJECT_ID":"2023-064E","EPOCH":"2025-10-08T00:25:18.332256","MEAN_MOTION":14.98349887,"ECCENTRICITY":0.0003031,"INCLINATION":69.9995,"RA_OF_ASC_NODE":169.5434,"ARG_OF_PERICENTER":275.4146,"MEAN_ANOMALY":84.6668,"EPHEMERIS_TYPE":0,"CLASSIFICATION_TYPE":"U","NORAD_CAT_ID":56452,"ELEMENT_SET_NO":999,"REV_AT_EPOCH":13237,"BSTAR":0.00018609879,"MEAN_MOTION_DOT":2.129e-5,"MEAN_MOTION_DDOT":0},{"OBJECT_NAME":"STARLINK-5935","OBJECT_ID":"2023-064F","EPOCH":"2025-10-08T00:19:17.872320","MEAN_MOTION":14.98339413,"ECCENTRICITY":0.0002495,"INCLINATION":70.001,"RA_OF_ASC_NODE":169.5295,"ARG_OF_PERICENTER":262.5959,"MEAN_ANOMALY":97.4917,"EPHEMERIS_TYPE":0,"CLASSIFICATION_TYPE":"U","NORAD_CAT_ID":56453,"ELEMENT_SET_NO":999,"REV_AT_EPOCH":13237,"BSTAR":0.00034570584,"MEAN_MOTION_DOT":4.035e-5,"MEAN_MOTION_DDOT":0},{"OBJECT_NAME":"STARLINK-5959","OBJECT_ID":"2023-064G","EPOCH":"2025-10-08T03:01:30.469440","MEAN_MOTION":14.98334472,"ECCENTRICITY":0.00030209,"INCLINATION":70.0001,"RA_OF_ASC_NODE":169.1191,"ARG_OF_PERICENTER":269.6666,"MEAN_ANOMALY":90.4147,"EPHEMERIS_TYPE":0,"CLASSIFICATION_TYPE":"U","NORAD_CAT_ID":56454,"ELEMENT_SET_NO":999,"REV_AT_EPOCH":13239,"BSTAR":8.9555222e-5,"MEAN_MOTION_DOT":9.76e-6,"MEAN_MOTION_DDOT":0},{"OBJECT_NAME":"STARLINK-5987","OBJECT_ID":"2023-064H","EPOCH":"2025-10-08T02:55:30.030240","MEAN_MOTION":14.98333952,"ECCENTRICITY":0.00030995,"INCLINATION":69.9999,"RA_OF_ASC_NODE":169.1041,"ARG_OF_PERICENTER":267.9037,"MEAN_ANOMALY":92.1767,"EPHEMERIS_TYPE":0,"CLASSIFICATION_TYPE":"U","NORAD_CAT_ID":56455,"ELEMENT_SET_NO":999,"REV_AT_EPOCH":13239,"BSTAR":0.00013886235,"MEAN_MOTION_DOT":1.564e-5,"MEAN_MOTION_DDOT":0},{"OBJECT_NAME":"STARLINK-5995","OBJECT_ID":"2023-064J","EPOCH":"2025-10-08T01:37:23.727072","MEAN_MOTION":14.98335084,"ECCENTRICITY":0.00028686,"INCLINATION":70.0002,"RA_OF_ASC_NODE":169.3174,"ARG_OF_PERICENTER":269.7253,"MEAN_ANOMALY":90.3577,"EPHEMERIS_TYPE":0,"CLASSIFICATION_TYPE":"U","NORAD_CAT_ID":56456,"ELEMENT_SET_NO":999,"REV_AT_EPOCH":13238,"BSTAR":7.2628899e-5,"MEAN_MOTION_DOT":7.74e-6,"MEAN_MOTION_DDOT":0},{"OBJECT_NAME":"STARLINK-5994","OBJECT_ID":"2023-064K","EPOCH":"2025-10-08T01:31:22.941408","MEAN_MOTION":14.98336303,"ECCENTRICITY":0.00029657,"INCLINATION":70.0001,"RA_OF_ASC_NODE":169.3016,"ARG_OF_PERICENTER":270.9005,"MEAN_ANOMALY":89.1814,"EPHEMERIS_TYPE":0,"CLASSIFICATION_TYPE":"U","NORAD_CAT_ID":56457,"ELEMENT_SET_NO":999,"REV_AT_EPOCH":13238,"BSTAR":8.9411243e-5,"MEAN_MOTION_DOT":9.74e-6,"MEAN_MOTION_DDOT":0},{"OBJECT_NAME":"STARLINK-6050","OBJECT_ID":"2023-064L","EPOCH":"2025-10-07T22:31:08.695776","MEAN_MOTION":14.9833516,"ECCENTRICITY":0.0002892,"INCLINATION":69.9997,"RA_OF_ASC_NODE":169.6673,"ARG_OF_PERICENTER":268.2355,"MEAN_ANOMALY":91.8473,"EPHEMERIS_TYPE":0,"CLASSIFICATION_TYPE":"U","NORAD_CAT_ID":56458,"ELEMENT_SET_NO":999,"REV_AT_EPOCH":13236,"BSTAR":-0.00025546,"MEAN_MOTION_DOT":-3.14e-5,"MEAN_MOTION_DDOT":0},{"OBJECT_NAME":"STARLINK-6048","OBJECT_ID":"2023-064M","EPOCH":"2025-10-08T02:31:41.378592","MEAN_MOTION":14.98335882,"ECCENTRICITY":0.0002885,"INCLINATION":69.9996,"RA_OF_ASC_NODE":169.046,"ARG_OF_PERICENTER":265.0252,"MEAN_ANOMALY":95.0577,"EPHEMERIS_TYPE":0,"CLASSIFICATION_TYPE":"U","NORAD_CAT_ID":56459,"ELEMENT_SET_NO":999,"REV_AT_EPOCH":13238,"BSTAR":-0.0001533173,"MEAN_MOTION_DOT":-1.922e-5,"MEAN_MOTION_DDOT":0},{"OBJECT_NAME":"STARLINK-6047","OBJECT_ID":"2023-064N","EPOCH":"2025-10-08T02:49:29.305920","MEAN_MOTION":14.98334706,"ECCENTRICITY":0.000299,"INCLINATION":69.9998,"RA_OF_ASC_NODE":169.0897,"ARG_OF_PERICENTER":269.2792,"MEAN_ANOMALY":90.8025,"EPHEMERIS_TYPE":0,"CLASSIFICATION_TYPE":"U","NORAD_CAT_ID":56460,"ELEMENT_SET_NO":999,"REV_AT_EPOCH":13239,"BSTAR":0.00014895203,"MEAN_MOTION_DOT":1.685e-5,"MEAN_MOTION_DDOT":0},{"OBJECT_NAME":"STARLINK-6037","OBJECT_ID":"2023-064P","EPOCH":"2025-10-08T02:25:27.125760","MEAN_MOTION":14.98339895,"ECCENTRICITY":0.00028989,"INCLINATION":70.0008,"RA_OF_ASC_NODE":169.029,"ARG_OF_PERICENTER":266.9322,"MEAN_ANOMALY":93.1505,"EPHEMERIS_TYPE":0,"CLASSIFICATION_TYPE":"U","NORAD_CAT_ID":56461,"ELEMENT_SET_NO":999,"REV_AT_EPOCH":13239,"BSTAR":-8.8171208e-5,"MEAN_MOTION_DOT":-1.145e-5,"MEAN_MOTION_DDOT":0},{"OBJECT_NAME":"STARLINK-6045","OBJECT_ID":"2023-064Q","EPOCH":"2025-10-07T23:42:47.328192","MEAN_MOTION":14.98329269,"ECCENTRICITY":0.00030865,"INCLINATION":69.9969,"RA_OF_ASC_NODE":129.2702,"ARG_OF_PERICENTER":269.2366,"MEAN_ANOMALY":90.8439,"EPHEMERIS_TYPE":0,"CLASSIFICATION_TYPE":"U","NORAD_CAT_ID":56462,"ELEMENT_SET_NO":999,"REV_AT_EPOCH":13336,"BSTAR":3.4047129e-5,"MEAN_MOTION_DOT":3.13e-6,"MEAN_MOTION_DDOT":0},{"OBJECT_NAME":"STARLINK-6051","OBJECT_ID":"2023-064R","EPOCH":"2025-10-08T03:25:33.222432","MEAN_MOTION":14.98329296,"ECCENTRICITY":0.00029774,"INCLINATION":69.9987,"RA_OF_ASC_NODE":169.1693,"ARG_OF_PERICENTER":268.8626,"MEAN_ANOMALY":91.2192,"EPHEMERIS_TYPE":0,"CLASSIFICATION_TYPE":"U","NORAD_CAT_ID":56463,"ELEMENT_SET_NO":999,"REV_AT_EPOCH":13239,"BSTAR":-1.0386363e-5,"MEAN_MOTION_DOT":-2.17e-6,"MEAN_MOTION_DDOT":0},{"OBJECT_NAME":"STARLINK-6043","OBJECT_ID":"2023-064S","EPOCH":"2025-10-08T02:43:28.938432","MEAN_MOTION":14.9831981,"ECCENTRICITY":0.00031925,"INCLINATION":69.9993,"RA_OF_ASC_NODE":169.0749,"ARG_OF_PERICENTER":270.7846,"MEAN_ANOMALY":89.2947,"EPHEMERIS_TYPE":0,"CLASSIFICATION_TYPE":"U","NORAD_CAT_ID":56464,"ELEMENT_SET_NO":999,"REV_AT_EPOCH":13239,"BSTAR":0.00027943796,"MEAN_MOTION_DOT":3.242e-5,"MEAN_MOTION_DDOT":0}]
